HERMES-2                
1 63243U 25052AK  26068.92847372  .00009456  00000+0  34839-3 0  9999
2 63243  97.4004 324.4926 0006340  99.4160 260.7796 15.28021069 54859
STARLINK-36470          
1 67319U 26002Q   26068.07931649  .00035815  00000+0  13044-2 0  9992
2 67319  43.0005 328.8750 0001863 264.6506  95.4133 15.27587547 11042
